STARLINK-1181
1 15086C 20006AU  21325.76419126  .00010196  00000-0  66697-3 0  3257
2 15086  53.0028  87.4933 0002206 102.3835   8.3508 15.07270777    17
